     2.11           NAVIGATION DATA     M                   RINEX VERSION / TYPE
rinex_from_file     rokubun             20240415 141429 UTC PGM / RUN BY / DATE
    18                                                      LEAP SECONDS
                                                            END OF HEADER
 1 22 01 01 00 10 00.0 0.000000000000e+00 0.000000000000e+00 0.000000000000e+00
    0.000000000000e+00 0.000000000000e+00 0.000000000000e+00-2.166473122116e+00
    0.000000000000e+00 4.900228161470e-02 0.000000000000e+00 2.767826529427e+03
    5.190000000000e+05 0.000000000000e+00 6.244167969239e+00 0.000000000000e+00
    1.328645263796e+00 0.000000000000e+00 2.360400817089e+00 0.000000000000e+00
    0.000000000000e+00 0.000000000000e+00 2.190000000000e+03 0.000000000000e+00
    0.000000000000e+00 0.000000000000e+00 0.000000000000e+00 0.000000000000e+00
    5.190000000000e+05 0.000000000000e+00
 2 22 01 01 00 10 00.0 0.000000000000e+00 0.000000000000e+00 0.000000000000e+00
    0.000000000000e+00 0.000000000000e+00 0.000000000000e+00-2.166473122116e+00
    0.000000000000e+00 4.900228161470e-02 0.000000000000e+00 2.767826529427e+03
    5.190000000000e+05 0.000000000000e+00 3.951526795352e-01 0.000000000000e+00
    1.812947389794e+00 0.000000000000e+00 2.360400817089e+00 0.000000000000e+00
    0.000000000000e+00 0.000000000000e+00 2.190000000000e+03 0.000000000000e+00
    0.000000000000e+00 0.000000000000e+00 0.000000000000e+00 0.000000000000e+00
    5.190000000000e+05 0.000000000000e+00
 3 22 01 01 00 10 00.0 0.000000000000e+00 0.000000000000e+00 0.000000000000e+00
    0.000000000000e+00 0.000000000000e+00 0.000000000000e+00-2.058733084014e+00
    0.000000000000e+00 4.900228161470e-02 0.000000000000e+00 2.767826529427e+03
    5.190000000000e+05 0.000000000000e+00 6.244167969239e+00 0.000000000000e+00
    1.328645263796e+00 0.000000000000e+00 2.360400817089e+00 0.000000000000e+00
    0.000000000000e+00 0.000000000000e+00 2.190000000000e+03 0.000000000000e+00
    0.000000000000e+00 0.000000000000e+00 0.000000000000e+00 0.000000000000e+00
    5.190000000000e+05 0.000000000000e+00
 4 22 01 01 00 10 00.0 0.000000000000e+00 0.000000000000e+00 0.000000000000e+00
    0.000000000000e+00 0.000000000000e+00 0.000000000000e+00-2.058733084014e+00
    0.000000000000e+00 4.900228161470e-02 0.000000000000e+00 2.767826529427e+03
    5.190000000000e+05 0.000000000000e+00 3.951526795352e-01 0.000000000000e+00
    1.812947389794e+00 0.000000000000e+00 2.360400817089e+00 0.000000000000e+00
    0.000000000000e+00 0.000000000000e+00 2.190000000000e+03 0.000000000000e+00
    0.000000000000e+00 0.000000000000e+00 0.000000000000e+00 0.000000000000e+00
    5.190000000000e+05 0.000000000000e+00
 5 22 01 01 00 10 00.0 0.000000000000e+00 0.000000000000e+00 0.000000000000e+00
    0.000000000000e+00 0.000000000000e+00 0.000000000000e+00-1.949955587765e+00
    0.000000000000e+00 4.900228161470e-02 0.000000000000e+00 2.767826529427e+03
    5.190000000000e+05 0.000000000000e+00 6.244167969239e+00 0.000000000000e+00
    1.328645263796e+00 0.000000000000e+00 2.360400817089e+00 0.000000000000e+00
    0.000000000000e+00 0.000000000000e+00 2.190000000000e+03 0.000000000000e+00
    0.000000000000e+00 0.000000000000e+00 0.000000000000e+00 0.000000000000e+00
    5.190000000000e+05 0.000000000000e+00
 6 22 01 01 00 10 00.0 0.000000000000e+00 0.000000000000e+00 0.000000000000e+00
    0.000000000000e+00 0.000000000000e+00 0.000000000000e+00-1.949955587765e+00
    0.000000000000e+00 4.900228161470e-02 0.000000000000e+00 2.767826529427e+03
    5.190000000000e+05 0.000000000000e+00 3.951526795352e-01 0.000000000000e+00
    1.812947389794e+00 0.000000000000e+00 2.360400817089e+00 0.000000000000e+00
    0.000000000000e+00 0.000000000000e+00 2.190000000000e+03 0.000000000000e+00
    0.000000000000e+00 0.000000000000e+00 0.000000000000e+00 0.000000000000e+00
    5.190000000000e+05 0.000000000000e+00
 7 22 01 01 00 10 00.0 0.000000000000e+00 0.000000000000e+00 0.000000000000e+00
    0.000000000000e+00 0.000000000000e+00 0.000000000000e+00-1.840070783947e+00
    0.000000000000e+00 4.900228161470e-02 0.000000000000e+00 2.767826529427e+03
    5.190000000000e+05 0.000000000000e+00 6.244167969239e+00 0.000000000000e+00
    1.328645263796e+00 0.000000000000e+00 2.360400817089e+00 0.000000000000e+00
    0.000000000000e+00 0.000000000000e+00 2.190000000000e+03 0.000000000000e+00
    0.000000000000e+00 0.000000000000e+00 0.000000000000e+00 0.000000000000e+00
    5.190000000000e+05 0.000000000000e+00
 8 22 01 01 00 10 00.0 0.000000000000e+00 0.000000000000e+00 0.000000000000e+00
    0.000000000000e+00 0.000000000000e+00 0.000000000000e+00-1.840070783947e+00
    0.000000000000e+00 4.900228161470e-02 0.000000000000e+00 2.767826529427e+03
    5.190000000000e+05 0.000000000000e+00 3.951526795352e-01 0.000000000000e+00
    1.812947389794e+00 0.000000000000e+00 2.360400817089e+00 0.000000000000e+00
    0.000000000000e+00 0.000000000000e+00 2.190000000000e+03 0.000000000000e+00
    0.000000000000e+00 0.000000000000e+00 0.000000000000e+00 0.000000000000e+00
    5.190000000000e+05 0.000000000000e+00
 9 22 01 01 00 10 00.0 0.000000000000e+00 0.000000000000e+00 0.000000000000e+00
    0.000000000000e+00 0.000000000000e+00 0.000000000000e+00-1.729019050352e+00
    0.000000000000e+00 4.900228161470e-02 0.000000000000e+00 2.767826529427e+03
    5.190000000000e+05 0.000000000000e+00 6.244167969239e+00 0.000000000000e+00
    1.328645263796e+00 0.000000000000e+00 2.360400817089e+00 0.000000000000e+00
    0.000000000000e+00 0.000000000000e+00 2.190000000000e+03 0.000000000000e+00
    0.000000000000e+00 0.000000000000e+00 0.000000000000e+00 0.000000000000e+00
    5.190000000000e+05 0.000000000000e+00
10 22 01 01 00 10 00.0 0.000000000000e+00 0.000000000000e+00 0.000000000000e+00
    0.000000000000e+00 0.000000000000e+00 0.000000000000e+00-1.729019050352e+00
    0.000000000000e+00 4.900228161470e-02 0.000000000000e+00 2.767826529427e+03
    5.190000000000e+05 0.000000000000e+00 3.951526795352e-01 0.000000000000e+00
    1.812947389794e+00 0.000000000000e+00 2.360400817089e+00 0.000000000000e+00
    0.000000000000e+00 0.000000000000e+00 2.190000000000e+03 0.000000000000e+00
    0.000000000000e+00 0.000000000000e+00 0.000000000000e+00 0.000000000000e+00
    5.190000000000e+05 0.000000000000e+00
11 22 01 01 00 10 00.0 0.000000000000e+00 0.000000000000e+00 0.000000000000e+00
    0.000000000000e+00 0.000000000000e+00 0.000000000000e+00-1.616752563091e+00
    0.000000000000e+00 4.900228161470e-02 0.000000000000e+00 2.767826529427e+03
    5.190000000000e+05 0.000000000000e+00 6.244167969239e+00 0.000000000000e+00
    1.328645263796e+00 0.000000000000e+00 2.360400817089e+00 0.000000000000e+00
    0.000000000000e+00 0.000000000000e+00 2.190000000000e+03 0.000000000000e+00
    0.000000000000e+00 0.000000000000e+00 0.000000000000e+00 0.000000000000e+00
    5.190000000000e+05 0.000000000000e+00
12 22 01 01 00 10 00.0 0.000000000000e+00 0.000000000000e+00 0.000000000000e+00
    0.000000000000e+00 0.000000000000e+00 0.000000000000e+00-1.616752563091e+00
    0.000000000000e+00 4.900228161470e-02 0.000000000000e+00 2.767826529427e+03
    5.190000000000e+05 0.000000000000e+00 3.951526795352e-01 0.000000000000e+00
    1.812947389794e+00 0.000000000000e+00 2.360400817089e+00 0.000000000000e+00
    0.000000000000e+00 0.000000000000e+00 2.190000000000e+03 0.000000000000e+00
    0.000000000000e+00 0.000000000000e+00 0.000000000000e+00 0.000000000000e+00
    5.190000000000e+05 0.000000000000e+00
13 22 01 01 00 10 00.0 0.000000000000e+00 0.000000000000e+00 0.000000000000e+00
    0.000000000000e+00 0.000000000000e+00 0.000000000000e+00-1.503236927674e+00
    0.000000000000e+00 4.900228161470e-02 0.000000000000e+00 2.767826529427e+03
    5.190000000000e+05 0.000000000000e+00 6.244167969239e+00 0.000000000000e+00
    1.328645263796e+00 0.000000000000e+00 2.360400817089e+00 0.000000000000e+00
    0.000000000000e+00 0.000000000000e+00 2.190000000000e+03 0.000000000000e+00
    0.000000000000e+00 0.000000000000e+00 0.000000000000e+00 0.000000000000e+00
    5.190000000000e+05 0.000000000000e+00
14 22 01 01 00 10 00.0 0.000000000000e+00 0.000000000000e+00 0.000000000000e+00
    0.000000000000e+00 0.000000000000e+00 0.000000000000e+00-1.503236927674e+00
    0.000000000000e+00 4.900228161470e-02 0.000000000000e+00 2.767826529427e+03
    5.190000000000e+05 0.000000000000e+00 3.951526795352e-01 0.000000000000e+00
    1.812947389794e+00 0.000000000000e+00 2.360400817089e+00 0.000000000000e+00
    0.000000000000e+00 0.000000000000e+00 2.190000000000e+03 0.000000000000e+00
    0.000000000000e+00 0.000000000000e+00 0.000000000000e+00 0.000000000000e+00
    5.190000000000e+05 0.000000000000e+00
15 22 01 01 00 10 00.0 0.000000000000e+00 0.000000000000e+00 0.000000000000e+00
    0.000000000000e+00 0.000000000000e+00 0.000000000000e+00-1.388452819076e+00
    0.000000000000e+00 4.900228161470e-02 0.000000000000e+00 2.767826529427e+03
    5.190000000000e+05 0.000000000000e+00 6.244167969239e+00 0.000000000000e+00
    1.328645263796e+00 0.000000000000e+00 2.360400817089e+00 0.000000000000e+00
    0.000000000000e+00 0.000000000000e+00 2.190000000000e+03 0.000000000000e+00
    0.000000000000e+00 0.000000000000e+00 0.000000000000e+00 0.000000000000e+00
    5.190000000000e+05 0.000000000000e+00
16 22 01 01 00 10 00.0 0.000000000000e+00 0.000000000000e+00 0.000000000000e+00
    0.000000000000e+00 0.000000000000e+00 0.000000000000e+00-1.388452819076e+00
    0.000000000000e+00 4.900228161470e-02 0.000000000000e+00 2.767826529427e+03
    5.190000000000e+05 0.000000000000e+00 3.951526795352e-01 0.000000000000e+00
    1.812947389794e+00 0.000000000000e+00 2.360400817089e+00 0.000000000000e+00
    0.000000000000e+00 0.000000000000e+00 2.190000000000e+03 0.000000000000e+00
    0.000000000000e+00 0.000000000000e+00 0.000000000000e+00 0.000000000000e+00
    5.190000000000e+05 0.000000000000e+00
17 22 01 01 00 10 00.0 0.000000000000e+00 0.000000000000e+00 0.000000000000e+00
    0.000000000000e+00 0.000000000000e+00 0.000000000000e+00-1.272397563933e+00
    0.000000000000e+00 4.900228161470e-02 0.000000000000e+00 2.767826529427e+03
    5.190000000000e+05 0.000000000000e+00 6.244167969239e+00 0.000000000000e+00
    1.328645263796e+00 0.000000000000e+00 2.360400817089e+00 0.000000000000e+00
    0.000000000000e+00 0.000000000000e+00 2.190000000000e+03 0.000000000000e+00
    0.000000000000e+00 0.000000000000e+00 0.000000000000e+00 0.000000000000e+00
    5.190000000000e+05 0.000000000000e+00
18 22 01 01 00 10 00.0 0.000000000000e+00 0.000000000000e+00 0.000000000000e+00
    0.000000000000e+00 0.000000000000e+00 0.000000000000e+00-1.272397563933e+00
    0.000000000000e+00 4.900228161470e-02 0.000000000000e+00 2.767826529427e+03
    5.190000000000e+05 0.000000000000e+00 3.951526795352e-01 0.000000000000e+00
    1.812947389794e+00 0.000000000000e+00 2.360400817089e+00 0.000000000000e+00
    0.000000000000e+00 0.000000000000e+00 2.190000000000e+03 0.000000000000e+00
    0.000000000000e+00 0.000000000000e+00 0.000000000000e+00 0.000000000000e+00
    5.190000000000e+05 0.000000000000e+00
19 22 01 01 00 10 00.0 0.000000000000e+00 0.000000000000e+00 0.000000000000e+00
    0.000000000000e+00 0.000000000000e+00 0.000000000000e+00-1.155086582485e+00
    0.000000000000e+00 4.900228161470e-02 0.000000000000e+00 2.767826529427e+03
    5.190000000000e+05 0.000000000000e+00 6.244167969239e+00 0.000000000000e+00
    1.328645263796e+00 0.000000000000e+00 2.360400817089e+00 0.000000000000e+00
    0.000000000000e+00 0.000000000000e+00 2.190000000000e+03 0.000000000000e+00
    0.000000000000e+00 0.000000000000e+00 0.000000000000e+00 0.000000000000e+00
    5.190000000000e+05 0.000000000000e+00
20 22 01 01 00 10 00.0 0.000000000000e+00 0.000000000000e+00 0.000000000000e+00
    0.000000000000e+00 0.000000000000e+00 0.000000000000e+00-1.155086582485e+00
    0.000000000000e+00 4.900228161470e-02 0.000000000000e+00 2.767826529427e+03
    5.190000000000e+05 0.000000000000e+00 3.951526795352e-01 0.000000000000e+00
    1.812947389794e+00 0.000000000000e+00 2.360400817089e+00 0.000000000000e+00
    0.000000000000e+00 0.000000000000e+00 2.190000000000e+03 0.000000000000e+00
    0.000000000000e+00 0.000000000000e+00 0.000000000000e+00 0.000000000000e+00
    5.190000000000e+05 0.000000000000e+00
